CCSDS_OMM_VERS = 2.0
CREATION_DATE  = 
ORIGINATOR     = 

OBJECT_NAME    = SL-14 R/B
OBJECT_ID      = 1991-042B
CENTER_NAME    = EARTH
REF_FRAME      = TEME
TIME_SYSTEM    = UTC
MEAN_ELEMENT_THEORY = SGP/SGP4

EPOCH          = 2026-01-25T03:15:08.423424
MEAN_MOTION    = 14.81786892
ECCENTRICITY   = .00178066
INCLINATION    = 82.4914
RA_OF_ASC_NODE = 261.0338
ARG_OF_PERICENTER = 28.7909
MEAN_ANOMALY   = 331.4284

EPHEMERIS_TYPE = 0
CLASSIFICATION_TYPE = U
NORAD_CAT_ID   = 21423
ELEMENT_SET_NO = 999
REV_AT_EPOCH   = 84662
BSTAR          = .85020356E-4
MEAN_MOTION_DOT = .696E-5
MEAN_MOTION_DDOT = 0

CCSDS_OMM_VERS = 2.0
CREATION_DATE  = 
ORIGINATOR     = 

OBJECT_NAME    = ERS-1
OBJECT_ID      = 1991-050A
CENTER_NAME    = EARTH
REF_FRAME      = TEME
TIME_SYSTEM    = UTC
MEAN_ELEMENT_THEORY = SGP/SGP4

EPOCH          = 2026-01-25T12:44:00.713184
MEAN_MOTION    = 14.39409393
ECCENTRICITY   = .003145
INCLINATION    = 98.7898
RA_OF_ASC_NODE = 42.6804
ARG_OF_PERICENTER = 332.0937
MEAN_ANOMALY   = 27.8562

EPHEMERIS_TYPE = 0
CLASSIFICATION_TYPE = U
NORAD_CAT_ID   = 21574
ELEMENT_SET_NO = 999
REV_AT_EPOCH   = 80952
BSTAR          = .21493E-3
MEAN_MOTION_DOT = .626E-5
MEAN_MOTION_DDOT = 0

CCSDS_OMM_VERS = 2.0
CREATION_DATE  = 
ORIGINATOR     = 

OBJECT_NAME    = ARIANE 40 R/B
OBJECT_ID      = 1991-050F
CENTER_NAME    = EARTH
REF_FRAME      = TEME
TIME_SYSTEM    = UTC
MEAN_ELEMENT_THEORY = SGP/SGP4

EPOCH          = 2026-01-25T21:24:40.824288
MEAN_MOTION    = 14.42858583
ECCENTRICITY   = .00029845
INCLINATION    = 98.2101
RA_OF_ASC_NODE = 79.7163
ARG_OF_PERICENTER = 181.4146
MEAN_ANOMALY   = 178.7037

EPHEMERIS_TYPE = 0
CLASSIFICATION_TYPE = U
NORAD_CAT_ID   = 21610
ELEMENT_SET_NO = 999
REV_AT_EPOCH   = 81282
BSTAR          = .201196E-3
MEAN_MOTION_DOT = .63E-5
MEAN_MOTION_DDOT = 0

CCSDS_OMM_VERS = 2.0
CREATION_DATE  = 
ORIGINATOR     = 

OBJECT_NAME    = INTERCOSMOS 25
OBJECT_ID      = 1991-086A
CENTER_NAME    = EARTH
REF_FRAME      = TEME
TIME_SYSTEM    = UTC
MEAN_ELEMENT_THEORY = SGP/SGP4

EPOCH          = 2026-01-25T17:22:59.696256
MEAN_MOTION    = 12.11880171
ECCENTRICITY   = .14861965
INCLINATION    = 82.6090
RA_OF_ASC_NODE = 335.9725
ARG_OF_PERICENTER = 209.5197
MEAN_ANOMALY   = 141.3359

EPHEMERIS_TYPE = 0
CLASSIFICATION_TYPE = U
NORAD_CAT_ID   = 21819
ELEMENT_SET_NO = 999
REV_AT_EPOCH   = 49148
BSTAR          = .3784057E-3
MEAN_MOTION_DOT = .1919E-4
MEAN_MOTION_DDOT = 0

CCSDS_OMM_VERS = 2.0
CREATION_DATE  = 
ORIGINATOR     = 

OBJECT_NAME    = SL-8 R/B
OBJECT_ID      = 1992-008B
CENTER_NAME    = EARTH
REF_FRAME      = TEME
TIME_SYSTEM    = UTC
MEAN_ELEMENT_THEORY = SGP/SGP4

EPOCH          = 2026-01-25T17:45:01.134144
MEAN_MOTION    = 13.75968287
ECCENTRICITY   = .00333294
INCLINATION    = 82.9286
RA_OF_ASC_NODE = 299.7256
ARG_OF_PERICENTER = 254.3624
MEAN_ANOMALY   = 134.8542

EPHEMERIS_TYPE = 0
CLASSIFICATION_TYPE = U
NORAD_CAT_ID   = 21876
ELEMENT_SET_NO = 999
REV_AT_EPOCH   = 70351
BSTAR          = .92249316E-4
MEAN_MOTION_DOT = .105E-5
MEAN_MOTION_DDOT = 0

CCSDS_OMM_VERS = 2.0
CREATION_DATE  = 
ORIGINATOR     = 

OBJECT_NAME    = SL-8 R/B
OBJECT_ID      = 1992-020B
CENTER_NAME    = EARTH
REF_FRAME      = TEME
TIME_SYSTEM    = UTC
MEAN_ELEMENT_THEORY = SGP/SGP4

EPOCH          = 2026-01-25T20:52:50.920320
MEAN_MOTION    = 13.75541707
ECCENTRICITY   = .00300179
INCLINATION    = 82.9307
RA_OF_ASC_NODE = 185.5461
ARG_OF_PERICENTER = 58.8094
MEAN_ANOMALY   = 107.8262

EPHEMERIS_TYPE = 0
CLASSIFICATION_TYPE = U
NORAD_CAT_ID   = 21938
ELEMENT_SET_NO = 999
REV_AT_EPOCH   = 69524
BSTAR          = .19209335E-3
MEAN_MOTION_DOT = .201E-5
MEAN_MOTION_DDOT = 0

CCSDS_OMM_VERS = 2.0
CREATION_DATE  = 
ORIGINATOR     = 

OBJECT_NAME    = USA 81
OBJECT_ID      = 1992-023A
CENTER_NAME    = EARTH
REF_FRAME      = TEME
TIME_SYSTEM    = UTC
MEAN_ELEMENT_THEORY = SGP/SGP4

EPOCH          = 2026-01-25T18:22:54.807168
MEAN_MOTION    = 14.32349500
ECCENTRICITY   = .00021859
INCLINATION    = 85.0113
RA_OF_ASC_NODE = 156.1886
ARG_OF_PERICENTER = 113.8329
MEAN_ANOMALY   = 246.3093

EPHEMERIS_TYPE = 0
CLASSIFICATION_TYPE = U
NORAD_CAT_ID   = 21949
ELEMENT_SET_NO = 999
REV_AT_EPOCH   = 8864
BSTAR          = .13767202E-3
MEAN_MOTION_DOT = .392E-5
MEAN_MOTION_DDOT = 0

CCSDS_OMM_VERS = 2.0
CREATION_DATE  = 
ORIGINATOR     = 

OBJECT_NAME    = COSMOS 2219
OBJECT_ID      = 1992-076A
CENTER_NAME    = EARTH
REF_FRAME      = TEME
TIME_SYSTEM    = UTC
MEAN_ELEMENT_THEORY = SGP/SGP4

EPOCH          = 2026-01-25T22:28:24.271392
MEAN_MOTION    = 14.14080727
ECCENTRICITY   = .00208024
INCLINATION    = 71.0610
RA_OF_ASC_NODE = 107.4475
ARG_OF_PERICENTER = 266.4336
MEAN_ANOMALY   = 93.4407

EPHEMERIS_TYPE = 0
CLASSIFICATION_TYPE = U
NORAD_CAT_ID   = 22219
ELEMENT_SET_NO = 999
REV_AT_EPOCH   = 71233
BSTAR          = -.65432221E-4
MEAN_MOTION_DOT = -.172E-5
MEAN_MOTION_DDOT = 0

CCSDS_OMM_VERS = 2.0
CREATION_DATE  = 
ORIGINATOR     = 

OBJECT_NAME    = SL-16 R/B
OBJECT_ID      = 1992-076B
CENTER_NAME    = EARTH
REF_FRAME      = TEME
TIME_SYSTEM    = UTC
MEAN_ELEMENT_THEORY = SGP/SGP4

EPOCH          = 2026-01-25T14:54:52.682112
MEAN_MOTION    = 14.16850374
ECCENTRICITY   = .0012345
INCLINATION    = 70.9996
RA_OF_ASC_NODE = 279.0977
ARG_OF_PERICENTER = 171.1544
MEAN_ANOMALY   = 203.1795

EPHEMERIS_TYPE = 0
CLASSIFICATION_TYPE = U
NORAD_CAT_ID   = 22220
ELEMENT_SET_NO = 999
REV_AT_EPOCH   = 71573
BSTAR          = -.30998E-4
MEAN_MOTION_DOT = -.11E-5
MEAN_MOTION_DDOT = 0

CCSDS_OMM_VERS = 2.0
CREATION_DATE  = 
ORIGINATOR     = 

OBJECT_NAME    = COSMOS 2221
OBJECT_ID      = 1992-080A
CENTER_NAME    = EARTH
REF_FRAME      = TEME
TIME_SYSTEM    = UTC
MEAN_ELEMENT_THEORY = SGP/SGP4

EPOCH          = 2026-01-25T18:23:17.642688
MEAN_MOTION    = 14.96002348
ECCENTRICITY   = .00140871
INCLINATION    = 82.5063
RA_OF_ASC_NODE = 320.1827
ARG_OF_PERICENTER = 344.1260
MEAN_ANOMALY   = 15.9519

EPHEMERIS_TYPE = 0
CLASSIFICATION_TYPE = U
NORAD_CAT_ID   = 22236
ELEMENT_SET_NO = 999
REV_AT_EPOCH   = 77437
BSTAR          = .35392938E-3
MEAN_MOTION_DOT = .4001E-4
MEAN_MOTION_DDOT = 0

CCSDS_OMM_VERS = 2.0
CREATION_DATE  = 
ORIGINATOR     = 

OBJECT_NAME    = SL-16 R/B
OBJECT_ID      = 1992-093B
CENTER_NAME    = EARTH
REF_FRAME      = TEME
TIME_SYSTEM    = UTC
MEAN_ELEMENT_THEORY = SGP/SGP4

EPOCH          = 2026-01-25T15:08:06.337824
MEAN_MOTION    = 14.15443502
ECCENTRICITY   = .0004512
INCLINATION    = 71.0221
RA_OF_ASC_NODE = 94.6621
ARG_OF_PERICENTER = 340.6073
MEAN_ANOMALY   = 19.4877

EPHEMERIS_TYPE = 0
CLASSIFICATION_TYPE = U
NORAD_CAT_ID   = 22285
ELEMENT_SET_NO = 999
REV_AT_EPOCH   = 70706
BSTAR          = .45992E-4
MEAN_MOTION_DOT = .42E-6
MEAN_MOTION_DDOT = 0

CCSDS_OMM_VERS = 2.0
CREATION_DATE  = 
ORIGINATOR     = 

OBJECT_NAME    = COSMOS 2228
OBJECT_ID      = 1992-094A
CENTER_NAME    = EARTH
REF_FRAME      = TEME
TIME_SYSTEM    = UTC
MEAN_ELEMENT_THEORY = SGP/SGP4

EPOCH          = 2026-01-25T22:39:42.170976
MEAN_MOTION    = 14.96982874
ECCENTRICITY   = .0019655
INCLINATION    = 82.5175
RA_OF_ASC_NODE = 278.2382
ARG_OF_PERICENTER = 85.7787
MEAN_ANOMALY   = 274.5681

EPHEMERIS_TYPE = 0
CLASSIFICATION_TYPE = U
NORAD_CAT_ID   = 22286
ELEMENT_SET_NO = 999
REV_AT_EPOCH   = 76966
BSTAR          = .27496612E-3
MEAN_MOTION_DOT = .32E-4
MEAN_MOTION_DDOT = 0

