SL-14 R/B               
1 21423U 91042B   26025.13551416  .00000696  00000+0  85020-4 0  9998
2 21423  82.4914 261.0338 0017806  28.7909 331.4284 14.81786892846627
ERS-1                   
1 21574U 91050A   26025.53056381  .00000626  00000+0  21493-3 0  9995
2 21574  98.7898  42.6804 0031450 332.0937  27.8562 14.39409393809523
ARIANE 40 R/B           
1 21610U 91050F   26025.89213917  .00000630  00000+0  20120-3 0  9996
2 21610  98.2101  79.7163 0002984 181.4146 178.7037 14.42858583812826
INTERCOSMOS 25          
1 21819U 91086A   26025.72430204  .00001919  00000+0  37841-3 0  9997
2 21819  82.6090 335.9725 1486196 209.5197 141.3359 12.11880171491482
SL-8 R/B                
1 21876U 92008B   26025.73959646  .00000105  00000+0  92249-4 0  9992
2 21876  82.9286 299.7256 0033329 254.3624 134.8542 13.75968287703516
SL-8 R/B                
1 21938U 92020B   26025.87003380  .00000201  00000+0  19209-3 0  9996
2 21938  82.9307 185.5461 0030017  58.8094 107.8262 13.75541707695241
USA 81                  
1 21949U 92023A   26025.76591212  .00000392  00000+0  13767-3 0  9999
2 21949  85.0113 156.1886 0002185 113.8329 246.3093 14.32349500 88647
COSMOS 2219             
1 22219U 92076A   26025.93639203 -.00000172  00000+0 -65432-4 0  9995
2 22219  71.0610 107.4475 0020802 266.4336  93.4407 14.14080727712330
SL-16 R/B               
1 22220U 92076B   26025.62144308 -.00000110  00000+0 -30998-4 0  9991
2 22220  70.9996 279.0977 0012345 171.1544 203.1795 14.16850374715738
COSMOS 2221             
1 22236U 92080A   26025.76617642  .00004001  00000+0  35393-3 0  9998
2 22236  82.5063 320.1827 0014087 344.1260  15.9519 14.96002348774379
SL-16 R/B               
1 22285U 92093B   26025.63062891  .00000042  00000+0  45992-4 0  9990
2 22285  71.0221  94.6621 0004512 340.6073  19.4877 14.15443502707062
COSMOS 2228             
1 22286U 92094A   26025.94423809  .00003200  00000+0  27497-3 0  9994
2 22286  82.5175 278.2382 0019655  85.7787 274.5681 14.96982874769665
